# From MPEC 2016-K18
332P-C/Ikeya-Murakami,e,9.3837,152.3031,3.7339,3.086388,0.1817725,0.48968532,220.8116,12/15.0/2024,2000,g 16.5,4.0
# From MPEC 2016-ED0
332P-D/Ikeya-Murakami,e,9.3761,3.7923,152.4393,3.081138,0.1822373,0.48977814,359.9486,03/17.0/2016,2000,g 19.0,4.0
# From MPEC 2016-ED0
332P-E/Ikeya-Murakami,e,9.3774,3.8228,152.2825,3.079877,0.1823493,0.48922008,359.9889,03/17.0/2016,2000,g 21.0,4.0
# From MPEC 2016-ED0
332P-F/Ikeya-Murakami,e,9.5293,3.4757,152.8203,3.163214,0.1751908,0.49918860,359.8501,03/17.0/2016,2000,g 21.0,4.0
# From MPEC 2016-ED0
332P-G/Ikeya-Murakami,e,9.2523,3.6955,154.4000,3.050519,0.1849880,0.49200362,359.9006,03/19.0/2016,2000,g 19.0,4.0
# From MPC100285
332P-H/Ikeya-Murakami,e,9.3843,152.3037,3.7336,3.086569,0.1817565,0.48972111,220.7268,12/15.0/2024,2000,g 19.0,4.0
# From MPEC 2016-ED0
332P-I/Ikeya-Murakami,e,9.3791,3.8048,152.3297,3.081767,0.1821815,0.48955490,359.9360,03/17.0/2016,2000,g 20.5,2.0
# From MPEC 2016-EI8
332P-J/Ikeya-Murakami,e,9.4296,3.6729,152.7712,3.115165,0.1792596,0.49429435,359.8613,03/17.0/2016,2000,g 20.5,2.0
# From MPEC 2024-X74
333P/LINEAR,e,132.0222,115.7058,26.0172,4.220736,0.1136637,0.73631556,1.7847,12/15.0/2024,2000,g 15.0,4.0
# From MPEC 2023-J29
334P/NEAT,e,20.3686,90.4165,90.0402,6.826622,0.0552580,0.35157085,152.0424,12/15.0/2024,2000,g 10.5,4.0
# From MPEC 2023-M14
335P/Gibbs,e,7.2961,330.8003,162.3078,3.577370,0.1456660,0.54673113,124.6462,12/15.0/2024,2000,g 16.8,4.0
# From MPC105244
336P/McNaught,e,17.8405,298.1953,308.6234,5.037566,0.0871712,0.44476523,251.1766,12/15.0/2024,2000,g 13.5,4.0
# From MPEC 2024-A43
337P/WISE,e,16.1773,103.3248,164.3391,3.305552,0.1639978,0.49778324,146.5931,12/15.0/2024,2000,g 17.0,4.0
# From MPEC 2024-X74
338P/McNaught,e,25.3817,9.7871,4.6040,3.894784,0.1282268,0.41257176,17.1429,12/15.0/2024,2000,g 12.0,4.0
# From MPC101101
339P/Gibbs,e,5.7336,27.4677,172.6791,3.699031,0.1385390,0.63567650,65.4010,12/15.0/2024,2000,g 17.0,4.0
# From MPC133426
340P/Boattini,e,2.0789,291.6598,36.0719,4.247762,0.1125807,0.28013048,331.0355,12/15.0/2024,2000,g 14.3,4.0
# From MPEC 2023-J29
341P/Gibbs,e,3.7964,29.9564,312.3561,4.286069,0.1110747,0.41521654,345.7050,12/15.0/2024,2000,g 12.5,4.0
# From MPC101101
342P/SOHO,e,11.6956,73.3243,27.6334,3.040992,0.1858580,0.98296803,0.0000,02/07.6063/2027,2000,g  9.0,4.0
# From MPEC 2024-PC5
343P/NEAT-LONEOS,e,5.5978,257.0537,137.6062,5.457516,0.0773057,0.58506392,222.0083,12/15.0/2024,2000,g 14.0,4.0
# From MPEC 2023-J29
344P/Read,e,3.4996,273.1013,140.5998,4.856025,0.0921049,0.42381302,272.3483,12/15.0/2024,2000,g 13.0,4.0
# From MPEC 2024-TP3
345P/LINEAR,e,2.7281,154.5118,196.6953,4.031421,0.1217634,0.22125752,12.9430,12/15.0/2024,2000,g 12.0,4.0
# From MPEC 2022-K19
346P/Catalina,e,22.2194,102.4582,336.0491,4.469151,0.1043197,0.50393193,298.0142,12/15.0/2024,2000,g 14.0,4.0
# From MPEC 2024-RQ6
347P/PANSTARRS,e,11.7660,260.9915,98.1854,3.602309,0.1441560,0.38684898,74.1756,12/15.0/2024,2000,g 15.0,4.0
# From MPEC 2022-ED3
348P/PANSTARRS,e,17.7406,312.9177,135.7490,3.151719,0.1761501,0.30748767,182.4472,12/15.0/2024,2000,g 14.0,4.0
# From MPEC 2024-LE0
349P/Lemmon,e,5.4887,331.7424,255.7716,3.578301,0.1456092,0.29855892,29.4102,12/15.0/2024,2000,g 14.0,4.0
# From MPC111775
350P/McNaught,e,7.3638,65.2919,140.0465,4.081126,0.1195457,0.09460225,305.3175,12/15.0/2024,2000,g 14.0,4.0
# From MPC105244
351P/Wiegert-PANSTARRS,e,12.7745,352.6718,283.3015,4.440546,0.1053294,0.29470545,349.3284,12/15.0/2024,2000,g 12.5,4.0
# From MPEC 2023-J29
352P/Skiff,e,21.0086,28.0301,309.3965,6.654284,0.0574185,0.61632608,157.0398,12/15.0/2024,2000,g 13.2,4.0
# From MPEC 2020-AA5
353P/McNaught,e,28.4178,121.5148,230.4960,4.170635,0.1157180,0.46981864,294.7998,12/15.0/2024,2000,g 14.5,4.0
# From MPEC 2024-EF7
354P/LINEAR,e,5.2506,320.0645,132.8797,2.290134,0.2843890,0.12449665,121.6852,12/15.0/2024,2000,g 15.5,4.0
# From MPEC 2023-CD7
355P/LINEAR-NEAT,e,11.0460,51.4285,336.2848,3.468498,0.1525780,0.50806167,39.3164,12/15.0/2024,2000,g 15.5,2.0
# From MPEC 2022-F14
356P/WISE,e,9.6409,160.7982,226.1904,4.153206,0.1164472,0.35598985,296.6282,12/15.0/2024,2000,g 14.0,4.0
# From MPC114609
357P/Hill,e,6.3136,44.5755,1.4848,4.455352,0.1048048,0.43612191,250.1210,12/15.0/2024,2000,g 15.5,4.0
# From MPEC 2024-EF7
358P/PANSTARRS,e,11.0667,85.6668,299.4107,3.146761,0.1765666,0.23953745,70.8384,12/15.0/2024,2000,g 18.0,4.0
# From MPC110086
359P/LONEOS,e,10.2623,149.7566,200.3004,4.641771,0.0985550,0.32330667,263.1844,12/15.0/2024,2000,g 13.5,4.0
# From MPEC 2024-X74
360P/WISE,e,24.1090,2.1772,354.2888,3.697276,0.1386377,0.49917477,10.0131,12/15.0/2024,2000,g 19.5,6.0
# From MPEC 2023-CD7
361P/Spacewatch,e,13.8999,203.2434,219.1003,4.933073,0.0899555,0.43961855,211.6489,12/15.0/2024,2000,g 12.0,4.0
# From MPC114609
363P/Lemmon,e,5.3900,146.6324,340.8765,3.574336,0.1458515,0.51855191,4.6383,12/15.0/2024,2000,g 17.5,4.0
# From MPEC 2024-M41
364P/PANSTARRS,e,11.9934,46.0248,212.5442,2.896798,0.1999065,0.71969002,116.1670,12/15.0/2024,2000,g 17.0,2.0
# From MPC111775
365P/PANSTARRS,e,9.8502,86.6573,67.4158,3.156300,0.1757667,0.58153648,76.0309,12/15.0/2024,2000,g 17.0,4.0
# From MPC114610
366P/Spacewatch,e,8.8570,70.7227,153.0015,3.499586,0.1505494,0.34849898,352.9380,12/15.0/2024,2000,g 15.0,4.0
# From MPC112395
367P/Catalina,e,8.4596,58.6615,172.6946,3.511127,0.1498077,0.28001171,355.8701,12/15.0/2024,2000,g 17.5,2.0
# From MPC114610
368P/NEAT,e,15.4829,257.8539,118.9844,5.533966,0.0757093,0.62598299,172.7841,12/15.0/2024,2000,g 14.0,4.0
# From MPC114610
369P/Hill,e,10.3213,47.2928,13.2198,4.379040,0.1075563,0.55596528,241.8234,12/15.0/2024,2000,g 15.0,4.0
# From MPEC 2021-F20
370P/NEAT,e,19.4221,55.0828,356.7697,6.438825,0.0603246,0.61539024,143.4048,12/15.0/2024,2000,g 13.0,4.0
# From MPC114610
371P/LINEAR-Skiff,e,17.3853,67.2828,308.5733,4.180390,0.1153131,0.47674582,260.6214,12/15.0/2024,2000,g 16.0,4.0
# From MPEC 2020-K19
372P/McNaught,e,9.5056,27.5518,326.0092,4.511852,0.1028423,0.15146145,230.8104,12/15.0/2024,2000,g 13.5,4.0
# From MPEC 2021-F20
373P/Rinner,e,13.7702,231.9392,221.1001,3.797749,0.1331725,0.39377375,276.2483,12/15.0/2024,2000,g 14.5,4.0
# From MPC114610
374P/Larson,e,10.7624,7.8838,51.5534,4.971011,0.0889277,0.46376372,192.2273,12/15.0/2024,2000,g 14.0,4.0
# From MPEC 2021-F20
375P/Hill,e,17.3705,359.8590,119.4184,5.545925,0.0754646,0.66009519,164.8137,12/15.0/2024,2000,g 16.0,4.0
# From MPEC 2024-RQ6
376P/LONEOS,e,1.1662,312.8523,285.3836,5.756335,0.0713650,0.51371706,136.9597,12/15.0/2024,2000,g 12.5,4.0
# From MPEC 2022-N37
377P/Scotti,e,9.0271,225.9881,354.8650,6.695750,0.0568860,0.25121586,92.1407,12/15.0/2024,2000,g  9.5,4.0
# From MPEC 2024-X74
378P/McNaught,e,19.1560,93.7963,193.3503,6.288976,0.0624934,0.46410253,95.5237,12/15.0/2024,2000,g 12.0,4.0
# From MPC115889
379P/Spacewatch,e,12.4366,30.4696,184.5786,3.485342,0.1514733,0.35019495,294.1718,12/15.0/2024,2000,g 15.0,4.0
# From MPEC 2023-C45
380P/PANSTARRS,e,8.0259,127.8371,87.8503,4.435935,0.1054937,0.33517807,219.4113,12/15.0/2024,2000,g 12.5,4.0
# From MPEC 2021-J28
381P/LINEAR-Spacewatch,e,28.3481,173.3083,173.8548,7.144760,0.0516087,0.68080840,98.4269,12/15.0/2024,2000,g 17.5,2.0
# From MPEC 2024-MB8
382P/Larson,e,8.2592,170.9710,162.1886,5.908393,0.0686278,0.26790523,77.8041,12/15.0/2024,2000,g  8.0,4.0
# From MPEC 2022-OB6
383P/Christensen,e,12.3189,207.8542,133.7411,3.548478,0.1474487,0.59859247,276.7589,12/15.0/2024,2000,g 18.0,4.0
# From MPEC 2024-X74
384P/Kowalski,e,7.2832,354.1942,37.7145,2.898498,0.1997306,0.61633332,17.3484,12/15.0/2024,2000,g 19.5,4.0
# From MPEC 2021-F20
385P/Hill,e,16.8244,357.0492,44.4420,4.288825,0.1109677,0.40202590,212.5820,12/15.0/2024,2000,g 13.0,4.0
# From MPEC 2021-L04
386P/PANSTARRS,e,15.2446,134.9156,353.0882,4.049609,0.1209441,0.41734945,190.8265,12/15.0/2024,2000,g 14.5,4.0
# From MPEC 2021-J28
387P/Boattini,e,8.9382,259.2383,162.8448,4.797213,0.0938038,0.73709605,180.5055,12/15.0/2024,2000,g 15.0,4.0
# From MPEC 2021-S45
388P/Gibbs,e,23.8845,37.0217,42.3449,5.240550,0.0821559,0.61939437,161.7340,12/15.0/2024,2000,g 13.0,4.0
# From MPEC 2022-OB6
389P/Siding Spring,e,160.0830,218.8684,249.3548,5.631256,0.0737558,0.70545993,133.5561,12/15.0/2024,2000,g 16.0,4.0
# From MPEC 2024-EF7
390P/Gibbs,e,18.5288,152.2179,232.5289,5.816654,0.0702577,0.70694092,121.4244,12/15.0/2024,2000,g 12.0,4.0
# From MPEC 2021-F20
391P/Kowalski,e,21.2579,124.7792,187.0663,4.690116,0.0970351,0.11850656,239.2705,12/15.0/2024,2000,g  8.0,4.0
# From MPEC 2021-J28
392P/LINEAR,e,4.9299,24.8249,71.9286,6.141502,0.0647578,0.68392648,111.2141,12/15.0/2024,2000,g 14.5,4.0
# From MPEC 2023-T65
393P/Spacewatch-Hill,e,16.7857,36.3975,329.2238,4.799045,0.0937501,0.11943001,175.4595,12/15.0/2024,2000,g 11.0,4.0
# From MPEC 2020-KB7
394P/PANSTARRS,e,8.5287,98.1154,54.4161,4.327426,0.1094863,0.36812020,201.6517,12/15.0/2024,2000,g 16.0,2.4
# From MPEC 2024-PC5
395P/Catalina-NEAT,e,3.5744,221.0020,100.5105,7.200760,0.0510078,0.41260025,52.4334,12/15.0/2024,2000,g 10.0,4.0
# From MPEC 2020-KB7
396P/,e,5.4414,136.6133,8.2989,6.799003,0.0555951,0.41677905,107.6037,12/15.0/2024,2000,g 12.0,4.0
# From MPEC 2022-OB6
397P/Lemmon,e,10.9221,8.2174,14.5822,3.831745,0.1314042,0.40480241,215.3394,12/15.0/2024,2000,g 12.0,4.0
# From MPEC 2021-L04
398P/Boattini,e,11.0258,320.1378,127.5333,3.124917,0.1784212,0.58373781,258.3178,12/15.0/2024,2000,g 15.5,4.0
# From MPEC 2023-XP6
399P/PANSTARRS,e,13.3189,207.1249,214.4269,3.793313,0.1334062,0.44741147,173.6208,12/15.0/2024,2000,g 14.0,4.0
# From MPEC 2024-TD8
400P/PANSTARRS,e,10.9257,176.3614,238.9273,3.561900,0.1466160,0.40970272,205.6479,12/15.0/2024,2000,g 15.5,2.8
# From MPEC 2022-K19
401P/McNaught,e,12.8006,359.9206,309.3865,5.777500,0.0709732,0.57844672,130.4335,12/15.0/2024,2000,g 12.5,4.0
# From MPEC 2024-LE0
402P/LINEAR,e,30.8298,123.0536,326.9323,7.037862,0.0527889,0.44005038,57.8140,12/15.0/2024,2000,g  9.0,4.0
# From MPEC 2021-J28
